OBJECT_NAME,OBJECT_ID,EPOCH,MEAN_MOTION,ECCENTRICITY,INCLINATION,RA_OF_ASC_NODE,ARG_OF_PERICENTER,MEAN_ANOMALY,EPHEMERIS_TYPE,CLASSIFICATION_TYPE,NORAD_CAT_ID,ELEMENT_SET_NO,REV_AT_EPOCH,BSTAR,MEAN_MOTION_DOT,MEAN_MOTION_DDOT
IONOSFERA-M 3,2025-155A,2026-07-09T20:10:25.893408,14.21490247,.0002118,98.6036,152.1768,120.5331,239.6056,0,U,64876,999,4962,.32208E-4,.28E-6,0
IONOSFERA-M 4,2025-155B,2026-07-09T19:19:11.295840,14.21492688,.000173,98.6035,152.0592,105.0292,255.1077,0,U,64877,999,4961,.32862E-4,.29E-6,0
MICROCARB,2025-156A,2026-07-09T16:59:34.891008,14.72881364,.0017187,98.0075,267.4872,188.1611,171.9319,0,U,64899,999,5128,.60786E-4,.34E-5,0
CO3D 3,2025-156B,2026-07-09T16:46:36.242112,15.20209370,.0001854,97.4335,269.0683,100.3214,259.8230,0,U,64900,999,5295,.14825E-3,.3144E-4,0
CO3D 4,2025-156C,2026-07-09T16:46:49.336032,15.20203063,.0001186,97.4337,269.0684,162.6050,197.5226,0,U,64901,999,5295,.44088E-4,.887E-5,0
CO3D 2,2025-156D,2026-07-09T17:33:34.934112,15.20193716,.0001329,97.4334,268.9994,87.2074,272.9313,0,U,64902,999,5295,.12482E-3,.2635E-4,0
CO3D 1,2025-156E,2026-07-09T17:33:48.303648,15.20197112,.000128,97.4334,268.9995,98.7407,261.3973,0,U,64903,999,5295,.12764E-3,.2696E-4,0
PRSC-S1,2025-164A,2026-07-09T19:17:24.512352,15.06608680,.0005823,41.1290,160.4182,161.4992,198.6034,0,U,65055,999,5184,.16609E-3,.2327E-4,0
SENTINEL-6B,2025-264A,2026-07-09T04:21:06.140448,12.80930087,.00078824,66.0415,89.4979,268.8305,91.1807,0,U,66514,999,2998,-.4200914E-4,-.71E-6,0
CAS500-3,2025-274F,2026-07-08T19:06:22.060224,14.88374289,.00066658,97.7440,117.3557,55.1765,305.0078,0,U,66655,999,3336,.10657486E-3,.933E-5,0
CSG-3,2026-001A,2026-07-09T17:56:28.955040,14.82149656,.0001499,97.8893,14.0231,92.4764,267.6621,0,U,67304,999,2780,.32153E-4,.204E-5,0
PRSC-E03,2026-092A,2026-07-09T18:53:38.652288,15.06792698,.0004354,38.0024,316.4023,216.9149,143.1313,0,U,68835,999,1136,.13154E-3,.1887E-4,0
CAS500-2,2026-100AK,2026-07-09T18:53:56.785056,15.20862515,.0008131,97.3877,88.2163,314.7056,45.3516,0,U,69013,999,1024,.2089E-3,.4548E-4,0
